CCSDS_OMM_VERS = 2.0
CREATION_DATE  = 
ORIGINATOR     = 

OBJECT_NAME    = ATLAS CENTAUR R/B
OBJECT_ID      = 1972-065B
CENTER_NAME    = EARTH
REF_FRAME      = TEME
TIME_SYSTEM    = UTC
MEAN_ELEMENT_THEORY = SGP/SGP4

EPOCH          = 2025-12-19T06:46:47.802144
MEAN_MOTION    = 14.77425907
ECCENTRICITY   = .00333489
INCLINATION    = 35.0021
RA_OF_ASC_NODE = 56.8708
ARG_OF_PERICENTER = 53.2392
MEAN_ANOMALY   = 307.1363

EPHEMERIS_TYPE = 0
CLASSIFICATION_TYPE = U
NORAD_CAT_ID   = 6155
ELEMENT_SET_NO = 999
REV_AT_EPOCH   = 82936
BSTAR          = .12747549E-3
MEAN_MOTION_DOT = .905E-5
MEAN_MOTION_DDOT = 0

CCSDS_OMM_VERS = 2.0
CREATION_DATE  = 
ORIGINATOR     = 

OBJECT_NAME    = SL-8 R/B
OBJECT_ID      = 1975-112B
CENTER_NAME    = EARTH
REF_FRAME      = TEME
TIME_SYSTEM    = UTC
MEAN_ELEMENT_THEORY = SGP/SGP4

EPOCH          = 2025-12-19T05:31:34.998816
MEAN_MOTION    = 14.38149375
ECCENTRICITY   = .00166613
INCLINATION    = 74.0589
RA_OF_ASC_NODE = 166.9193
ARG_OF_PERICENTER = 277.6121
MEAN_ANOMALY   = 82.3141

EPHEMERIS_TYPE = 0
CLASSIFICATION_TYPE = U
NORAD_CAT_ID   = 8459
ELEMENT_SET_NO = 999
REV_AT_EPOCH   = 62030
BSTAR          = .94171426E-4
MEAN_MOTION_DOT = .26E-5
MEAN_MOTION_DDOT = 0

CCSDS_OMM_VERS = 2.0
CREATION_DATE  = 
ORIGINATOR     = 

OBJECT_NAME    = SL-3 R/B
OBJECT_ID      = 1977-057B
CENTER_NAME    = EARTH
REF_FRAME      = TEME
TIME_SYSTEM    = UTC
MEAN_ELEMENT_THEORY = SGP/SGP4

EPOCH          = 2025-12-19T05:47:06.004608
MEAN_MOTION    = 15.43094323
ECCENTRICITY   = .00069077
INCLINATION    = 97.5680
RA_OF_ASC_NODE = 156.8227
ARG_OF_PERICENTER = 206.0337
MEAN_ANOMALY   = 154.0564

EPHEMERIS_TYPE = 0
CLASSIFICATION_TYPE = U
NORAD_CAT_ID   = 10114
ELEMENT_SET_NO = 999
REV_AT_EPOCH   = 65591
BSTAR          = .21666976E-3
MEAN_MOTION_DOT = .9495E-4
MEAN_MOTION_DDOT = 0

CCSDS_OMM_VERS = 2.0
CREATION_DATE  = 
ORIGINATOR     = 

OBJECT_NAME    = SEASAT 1
OBJECT_ID      = 1978-064A
CENTER_NAME    = EARTH
REF_FRAME      = TEME
TIME_SYSTEM    = UTC
MEAN_ELEMENT_THEORY = SGP/SGP4

EPOCH          = 2025-12-19T04:26:15.565632
MEAN_MOTION    = 14.46068256
ECCENTRICITY   = .00014512
INCLINATION    = 108.0126
RA_OF_ASC_NODE = 316.5560
ARG_OF_PERICENTER = 252.1888
MEAN_ANOMALY   = 107.9099

EPHEMERIS_TYPE = 0
CLASSIFICATION_TYPE = U
NORAD_CAT_ID   = 10967
ELEMENT_SET_NO = 999
REV_AT_EPOCH   = 49487
BSTAR          = .10321986E-3
MEAN_MOTION_DOT = .231E-5
MEAN_MOTION_DDOT = 0

CCSDS_OMM_VERS = 2.0
CREATION_DATE  = 
ORIGINATOR     = 

OBJECT_NAME    = SL-14 R/B
OBJECT_ID      = 1979-011B
CENTER_NAME    = EARTH
REF_FRAME      = TEME
TIME_SYSTEM    = UTC
MEAN_ELEMENT_THEORY = SGP/SGP4

EPOCH          = 2025-12-18T23:00:59.455008
MEAN_MOTION    = 14.91776842
ECCENTRICITY   = .00153537
INCLINATION    = 82.5232
RA_OF_ASC_NODE = 173.1456
ARG_OF_PERICENTER = 332.1612
MEAN_ANOMALY   = 27.8784

EPHEMERIS_TYPE = 0
CLASSIFICATION_TYPE = U
NORAD_CAT_ID   = 11267
ELEMENT_SET_NO = 999
REV_AT_EPOCH   = 51674
BSTAR          = .47890761E-4
MEAN_MOTION_DOT = .509E-5
MEAN_MOTION_DDOT = 0

CCSDS_OMM_VERS = 2.0
CREATION_DATE  = 
ORIGINATOR     = 

OBJECT_NAME    = SL-8 R/B
OBJECT_ID      = 1979-089B
CENTER_NAME    = EARTH
REF_FRAME      = TEME
TIME_SYSTEM    = UTC
MEAN_ELEMENT_THEORY = SGP/SGP4

EPOCH          = 2025-12-19T03:33:30.637728
MEAN_MOTION    = 14.42287772
ECCENTRICITY   = .00145872
INCLINATION    = 74.0684
RA_OF_ASC_NODE = 240.1185
ARG_OF_PERICENTER = 71.8092
MEAN_ANOMALY   = 288.4651

EPHEMERIS_TYPE = 0
CLASSIFICATION_TYPE = U
NORAD_CAT_ID   = 11574
ELEMENT_SET_NO = 999
REV_AT_EPOCH   = 42449
BSTAR          = .72136774E-4
MEAN_MOTION_DOT = .212E-5
MEAN_MOTION_DDOT = 0

CCSDS_OMM_VERS = 2.0
CREATION_DATE  = 
ORIGINATOR     = 

OBJECT_NAME    = SL-14 R/B
OBJECT_ID      = 1980-005B
CENTER_NAME    = EARTH
REF_FRAME      = TEME
TIME_SYSTEM    = UTC
MEAN_ELEMENT_THEORY = SGP/SGP4

EPOCH          = 2025-12-19T02:53:26.734848
MEAN_MOTION    = 14.90798852
ECCENTRICITY   = .0017307
INCLINATION    = 82.5144
RA_OF_ASC_NODE = 23.6477
ARG_OF_PERICENTER = 74.0894
MEAN_ANOMALY   = 286.2231

EPHEMERIS_TYPE = 0
CLASSIFICATION_TYPE = U
NORAD_CAT_ID   = 11672
ELEMENT_SET_NO = 999
REV_AT_EPOCH   = 46448
BSTAR          = .43786395E-4
MEAN_MOTION_DOT = .457E-5
MEAN_MOTION_DDOT = 0

CCSDS_OMM_VERS = 2.0
CREATION_DATE  = 
ORIGINATOR     = 

OBJECT_NAME    = SL-8 R/B
OBJECT_ID      = 1981-003B
CENTER_NAME    = EARTH
REF_FRAME      = TEME
TIME_SYSTEM    = UTC
MEAN_ELEMENT_THEORY = SGP/SGP4

EPOCH          = 2025-12-19T07:27:23.388768
MEAN_MOTION    = 15.07219225
ECCENTRICITY   = .02787518
INCLINATION    = 82.9309
RA_OF_ASC_NODE = 4.1563
ARG_OF_PERICENTER = 97.6481
MEAN_ANOMALY   = 265.6499

EPHEMERIS_TYPE = 0
CLASSIFICATION_TYPE = U
NORAD_CAT_ID   = 12139
ELEMENT_SET_NO = 999
REV_AT_EPOCH   = 30255
BSTAR          = .31741165E-3
MEAN_MOTION_DOT = .12013E-3
MEAN_MOTION_DDOT = 0

CCSDS_OMM_VERS = 2.0
CREATION_DATE  = 
ORIGINATOR     = 

OBJECT_NAME    = SL-3 R/B
OBJECT_ID      = 1981-046B
CENTER_NAME    = EARTH
REF_FRAME      = TEME
TIME_SYSTEM    = UTC
MEAN_ELEMENT_THEORY = SGP/SGP4

EPOCH          = 2025-12-19T06:11:59.316288
MEAN_MOTION    = 15.39733975
ECCENTRICITY   = .00184119
INCLINATION    = 81.2324
RA_OF_ASC_NODE = 26.1397
ARG_OF_PERICENTER = 300.7721
MEAN_ANOMALY   = 59.1707

EPHEMERIS_TYPE = 0
CLASSIFICATION_TYPE = U
NORAD_CAT_ID   = 12465
ELEMENT_SET_NO = 999
REV_AT_EPOCH   = 42604
BSTAR          = .20826209E-3
MEAN_MOTION_DOT = .8314E-4
MEAN_MOTION_DDOT = 0

CCSDS_OMM_VERS = 2.0
CREATION_DATE  = 
ORIGINATOR     = 

OBJECT_NAME    = SL-3 R/B
OBJECT_ID      = 1981-103B
CENTER_NAME    = EARTH
REF_FRAME      = TEME
TIME_SYSTEM    = UTC
MEAN_ELEMENT_THEORY = SGP/SGP4

EPOCH          = 2025-12-19T05:48:17.115264
MEAN_MOTION    = 15.20303973
ECCENTRICITY   = .00121587
INCLINATION    = 81.1592
RA_OF_ASC_NODE = 307.7376
ARG_OF_PERICENTER = 189.1852
MEAN_ANOMALY   = 170.9159

EPHEMERIS_TYPE = 0
CLASSIFICATION_TYPE = U
NORAD_CAT_ID   = 12904
ELEMENT_SET_NO = 999
REV_AT_EPOCH   = 96100
BSTAR          = .21098829E-3
MEAN_MOTION_DOT = .4617E-4
MEAN_MOTION_DDOT = 0

CCSDS_OMM_VERS = 2.0
CREATION_DATE  = 
ORIGINATOR     = 

OBJECT_NAME    = SL-3 R/B
OBJECT_ID      = 1982-013B
CENTER_NAME    = EARTH
REF_FRAME      = TEME
TIME_SYSTEM    = UTC
MEAN_ELEMENT_THEORY = SGP/SGP4

EPOCH          = 2025-12-19T05:19:06.150144
MEAN_MOTION    = 15.21139125
ECCENTRICITY   = .00242281
INCLINATION    = 81.1753
RA_OF_ASC_NODE = 255.0222
ARG_OF_PERICENTER = 90.0693
MEAN_ANOMALY   = 270.3314

EPHEMERIS_TYPE = 0
CLASSIFICATION_TYPE = U
NORAD_CAT_ID   = 13068
ELEMENT_SET_NO = 999
REV_AT_EPOCH   = 39211
BSTAR          = .16881967E-3
MEAN_MOTION_DOT = .3813E-4
MEAN_MOTION_DDOT = 0

CCSDS_OMM_VERS = 2.0
CREATION_DATE  = 
ORIGINATOR     = 

OBJECT_NAME    = SL-3 R/B
OBJECT_ID      = 1982-039B
CENTER_NAME    = EARTH
REF_FRAME      = TEME
TIME_SYSTEM    = UTC
MEAN_ELEMENT_THEORY = SGP/SGP4

EPOCH          = 2025-12-19T06:25:43.071168
MEAN_MOTION    = 15.09560678
ECCENTRICITY   = .00294517
INCLINATION    = 81.1713
RA_OF_ASC_NODE = 308.5864
ARG_OF_PERICENTER = 230.1061
MEAN_ANOMALY   = 129.7575

EPHEMERIS_TYPE = 0
CLASSIFICATION_TYPE = U
NORAD_CAT_ID   = 13154
ELEMENT_SET_NO = 999
REV_AT_EPOCH   = 36950
BSTAR          = .12872914E-3
MEAN_MOTION_DOT = .211E-4
MEAN_MOTION_DDOT = 0

