ATLAS CENTAUR R/B       
1 06155U 72065B   25353.28249771  .00000905  00000+0  12748-3 0  9993
2 06155  35.0021  56.8708 0033348  53.2392 307.1363 14.77425907829366
SL-8 R/B                
1 08459U 75112B   25353.23026619  .00000260  00000+0  94171-4 0  9992
2 08459  74.0589 166.9193 0016661 277.6121  82.3141 14.38149375620307
SL-3 R/B                
1 10114U 77057B   25353.24104172  .00009495  00000+0  21667-3 0  9993
2 10114  97.5680 156.8227 0006907 206.0337 154.0564 15.43094323655913
SEASAT 1                
1 10967U 78064A   25353.18490238  .00000231  00000+0  10322-3 0  9997
2 10967 108.0126 316.5560 0001451 252.1888 107.9099 14.46068256494873
SL-14 R/B               
1 11267U 79011B   25352.95902147  .00000509  00000+0  47891-4 0  9995
2 11267  82.5232 173.1456 0015353 332.1612  27.8784 14.91776842516741
SL-8 R/B                
1 11574U 79089B   25353.14827127  .00000212  00000+0  72137-4 0  9999
2 11574  74.0684 240.1185 0014587  71.8092 288.4651 14.42287772424493
SL-14 R/B               
1 11672U 80005B   25353.12044832  .00000457  00000+0  43786-4 0  9999
2 11672  82.5144  23.6477 0017307  74.0894 286.2231 14.90798852464485
SL-8 R/B                
1 12139U 81003B   25353.31068737  .00012013  00000+0  31741-3 0  9996
2 12139  82.9309   4.1563 0278751  97.6481 265.6499 15.07219225302553
SL-3 R/B                
1 12465U 81046B   25353.25832542  .00008314  00000+0  20826-3 0  9992
2 12465  81.2324  26.1397 0018411 300.7721  59.1707 15.39733975426040
SL-3 R/B                
1 12904U 81103B   25353.24186476  .00004617  00000+0  21099-3 0  9996
2 12904  81.1592 307.7376 0012158 189.1852 170.9159 15.20303973961009
SL-3 R/B                
1 13068U 82013B   25353.22159896  .00003813  00000+0  16882-3 0  9994
2 13068  81.1753 255.0222 0024228  90.0693 270.3314 15.21139125392114
SL-3 R/B                
1 13154U 82039B   25353.26785962  .00002110  00000+0  12873-3 0  9996
2 13154  81.1713 308.5864 0029451 230.1061 129.7575 15.09560678369501
